STARLINK-34852          
1 66135U 25237X   25308.16668980 -.00288610  00000+0 -20201-2 0  9995
2 66135  53.1528 271.1962 0001557  93.8537 226.1140 15.74349707  3240
STARLINK-35592          
1 66136U 25237Y   25308.16668980 -.00189207  00000+0 -13117-2 0  9996
2 66136  53.1526 271.1920 0001014 111.1531 210.7663 15.74278475  3285
STARLINK-35576          
1 66137U 25237Z   25308.16668980 -.00105765  00000+0 -72592-3 0  9997
2 66137  53.1524 271.1877 0001081 112.0287 211.8412 15.74221116  3281
STARLINK-35623          
1 66138U 25237AA  25308.16668980 -.00010066  00000+0 -64555-4 0  9998
2 66138  53.1527 271.1840 0001346  98.5829 227.2161 15.74173021  3282
STARLINK-35549          
1 66139U 25237AB  25308.16668980  .00167190  00000+0  11289-2 0  9992
2 66139  53.1527 271.1759 0001173 102.4630 227.2037 15.74074379  3283
STARLINK-35625          
1 66140U 25237AC  25308.16668980 -.00030429  00000+0 -20433-3 0  9992
2 66140  53.1526 271.1801 0001146  89.1524 238.5698 15.74175475  3282
STARLINK-35603          
1 66141U 25237AD  25308.16668980  .00187464  00000+0  12623-2 0  9994
2 66141  53.1527 271.1716 0001308  76.6520 254.9085 15.74072734  3282
TJS-20                  
1 66142U 25238A   25308.12011639  .00000026  00000+0  00000+0 0  9996
2 66142   5.9764 300.4883 0002015 152.3690  56.4970  1.00270004    74
CZ-5 R/B                
1 66143U 25238B   25307.82391848  .00030210  66735-6  12485-2 0  9991
2 66143  16.3657 269.6428 7595608 171.0204 221.6700  1.93218133   236
SPAINSAT NG II          
1 66144U 25239A   25302.68461591 -.00000205  00000+0  46486-3 0  9992
2 66144  24.9713 246.2153 8154119 179.7432 181.7033  1.13577027    88
HTV-X1                  
1 66174U 25241A   25307.77750668  .00010400  00000+0  19172-3 0  9998
2 66174  51.6338 335.3649 0004999  13.8862 346.2263 15.49729876  1335
GAOFEN-14 02            
1 66175U 25242A   25301.10588829  .00014793  00000+0  55401-3 0  9993
2 66175  97.4398  13.2893 0010327 261.9781  98.0286 15.27335919   301
