CCSDS_OMM_VERS = 2.0
CREATION_DATE  = 
ORIGINATOR     = 

OBJECT_NAME    = STARLINK-34852
OBJECT_ID      = 2025-237X
CENTER_NAME    = EARTH
REF_FRAME      = TEME
TIME_SYSTEM    = UTC
MEAN_ELEMENT_THEORY = SGP/SGP4

EPOCH          = 2025-11-04T04:00:01.998720
MEAN_MOTION    = 15.74349707
ECCENTRICITY   = .0001557
INCLINATION    = 53.1528
RA_OF_ASC_NODE = 271.1962
ARG_OF_PERICENTER = 93.8537
MEAN_ANOMALY   = 226.1140

EPHEMERIS_TYPE = 0
CLASSIFICATION_TYPE = U
NORAD_CAT_ID   = 66135
ELEMENT_SET_NO = 999
REV_AT_EPOCH   = 324
BSTAR          = -.20201E-2
MEAN_MOTION_DOT = -.28861E-2
MEAN_MOTION_DDOT = 0

CCSDS_OMM_VERS = 2.0
CREATION_DATE  = 
ORIGINATOR     = 

OBJECT_NAME    = STARLINK-35592
OBJECT_ID      = 2025-237Y
CENTER_NAME    = EARTH
REF_FRAME      = TEME
TIME_SYSTEM    = UTC
MEAN_ELEMENT_THEORY = SGP/SGP4

EPOCH          = 2025-11-04T04:00:01.998720
MEAN_MOTION    = 15.74278475
ECCENTRICITY   = .0001014
INCLINATION    = 53.1526
RA_OF_ASC_NODE = 271.1920
ARG_OF_PERICENTER = 111.1531
MEAN_ANOMALY   = 210.7663

EPHEMERIS_TYPE = 0
CLASSIFICATION_TYPE = U
NORAD_CAT_ID   = 66136
ELEMENT_SET_NO = 999
REV_AT_EPOCH   = 328
BSTAR          = -.13117E-2
MEAN_MOTION_DOT = -.189207E-2
MEAN_MOTION_DDOT = 0

CCSDS_OMM_VERS = 2.0
CREATION_DATE  = 
ORIGINATOR     = 

OBJECT_NAME    = STARLINK-35576
OBJECT_ID      = 2025-237Z
CENTER_NAME    = EARTH
REF_FRAME      = TEME
TIME_SYSTEM    = UTC
MEAN_ELEMENT_THEORY = SGP/SGP4

EPOCH          = 2025-11-04T04:00:01.998720
MEAN_MOTION    = 15.74221116
ECCENTRICITY   = .0001081
INCLINATION    = 53.1524
RA_OF_ASC_NODE = 271.1877
ARG_OF_PERICENTER = 112.0287
MEAN_ANOMALY   = 211.8412

EPHEMERIS_TYPE = 0
CLASSIFICATION_TYPE = U
NORAD_CAT_ID   = 66137
ELEMENT_SET_NO = 999
REV_AT_EPOCH   = 328
BSTAR          = -.72592E-3
MEAN_MOTION_DOT = -.105765E-2
MEAN_MOTION_DDOT = 0

CCSDS_OMM_VERS = 2.0
CREATION_DATE  = 
ORIGINATOR     = 

OBJECT_NAME    = STARLINK-35623
OBJECT_ID      = 2025-237AA
CENTER_NAME    = EARTH
REF_FRAME      = TEME
TIME_SYSTEM    = UTC
MEAN_ELEMENT_THEORY = SGP/SGP4

EPOCH          = 2025-11-04T04:00:01.998720
MEAN_MOTION    = 15.74173021
ECCENTRICITY   = .0001346
INCLINATION    = 53.1527
RA_OF_ASC_NODE = 271.1840
ARG_OF_PERICENTER = 98.5829
MEAN_ANOMALY   = 227.2161

EPHEMERIS_TYPE = 0
CLASSIFICATION_TYPE = U
NORAD_CAT_ID   = 66138
ELEMENT_SET_NO = 999
REV_AT_EPOCH   = 328
BSTAR          = -.64555E-4
MEAN_MOTION_DOT = -.10066E-3
MEAN_MOTION_DDOT = 0

CCSDS_OMM_VERS = 2.0
CREATION_DATE  = 
ORIGINATOR     = 

OBJECT_NAME    = STARLINK-35549
OBJECT_ID      = 2025-237AB
CENTER_NAME    = EARTH
REF_FRAME      = TEME
TIME_SYSTEM    = UTC
MEAN_ELEMENT_THEORY = SGP/SGP4

EPOCH          = 2025-11-04T04:00:01.998720
MEAN_MOTION    = 15.74074379
ECCENTRICITY   = .0001173
INCLINATION    = 53.1527
RA_OF_ASC_NODE = 271.1759
ARG_OF_PERICENTER = 102.4630
MEAN_ANOMALY   = 227.2037

EPHEMERIS_TYPE = 0
CLASSIFICATION_TYPE = U
NORAD_CAT_ID   = 66139
ELEMENT_SET_NO = 999
REV_AT_EPOCH   = 328
BSTAR          = .11289E-2
MEAN_MOTION_DOT = .16719E-2
MEAN_MOTION_DDOT = 0

CCSDS_OMM_VERS = 2.0
CREATION_DATE  = 
ORIGINATOR     = 

OBJECT_NAME    = STARLINK-35625
OBJECT_ID      = 2025-237AC
CENTER_NAME    = EARTH
REF_FRAME      = TEME
TIME_SYSTEM    = UTC
MEAN_ELEMENT_THEORY = SGP/SGP4

EPOCH          = 2025-11-04T04:00:01.998720
MEAN_MOTION    = 15.74175475
ECCENTRICITY   = .0001146
INCLINATION    = 53.1526
RA_OF_ASC_NODE = 271.1801
ARG_OF_PERICENTER = 89.1524
MEAN_ANOMALY   = 238.5698

EPHEMERIS_TYPE = 0
CLASSIFICATION_TYPE = U
NORAD_CAT_ID   = 66140
ELEMENT_SET_NO = 999
REV_AT_EPOCH   = 328
BSTAR          = -.20433E-3
MEAN_MOTION_DOT = -.30429E-3
MEAN_MOTION_DDOT = 0

CCSDS_OMM_VERS = 2.0
CREATION_DATE  = 
ORIGINATOR     = 

OBJECT_NAME    = STARLINK-35603
OBJECT_ID      = 2025-237AD
CENTER_NAME    = EARTH
REF_FRAME      = TEME
TIME_SYSTEM    = UTC
MEAN_ELEMENT_THEORY = SGP/SGP4

EPOCH          = 2025-11-04T04:00:01.998720
MEAN_MOTION    = 15.74072734
ECCENTRICITY   = .0001308
INCLINATION    = 53.1527
RA_OF_ASC_NODE = 271.1716
ARG_OF_PERICENTER = 76.6520
MEAN_ANOMALY   = 254.9085

EPHEMERIS_TYPE = 0
CLASSIFICATION_TYPE = U
NORAD_CAT_ID   = 66141
ELEMENT_SET_NO = 999
REV_AT_EPOCH   = 328
BSTAR          = .12623E-2
MEAN_MOTION_DOT = .187464E-2
MEAN_MOTION_DDOT = 0

CCSDS_OMM_VERS = 2.0
CREATION_DATE  = 
ORIGINATOR     = 

OBJECT_NAME    = TJS-20
OBJECT_ID      = 2025-238A
CENTER_NAME    = EARTH
REF_FRAME      = TEME
TIME_SYSTEM    = UTC
MEAN_ELEMENT_THEORY = SGP/SGP4

EPOCH          = 2025-11-04T02:52:58.056096
MEAN_MOTION    = 1.00270004
ECCENTRICITY   = .0002015
INCLINATION    = 5.9764
RA_OF_ASC_NODE = 300.4883
ARG_OF_PERICENTER = 152.3690
MEAN_ANOMALY   = 56.4970

EPHEMERIS_TYPE = 0
CLASSIFICATION_TYPE = U
NORAD_CAT_ID   = 66142
ELEMENT_SET_NO = 999
REV_AT_EPOCH   = 7
BSTAR          = 0
MEAN_MOTION_DOT = .26E-6
MEAN_MOTION_DDOT = 0

CCSDS_OMM_VERS = 2.0
CREATION_DATE  = 
ORIGINATOR     = 

OBJECT_NAME    = CZ-5 R/B
OBJECT_ID      = 2025-238B
CENTER_NAME    = EARTH
REF_FRAME      = TEME
TIME_SYSTEM    = UTC
MEAN_ELEMENT_THEORY = SGP/SGP4

EPOCH          = 2025-11-03T19:46:26.556672
MEAN_MOTION    = 1.93218133
ECCENTRICITY   = .75956086
INCLINATION    = 16.3657
RA_OF_ASC_NODE = 269.6428
ARG_OF_PERICENTER = 171.0204
MEAN_ANOMALY   = 221.6700

EPHEMERIS_TYPE = 0
CLASSIFICATION_TYPE = U
NORAD_CAT_ID   = 66143
ELEMENT_SET_NO = 999
REV_AT_EPOCH   = 23
BSTAR          = .12485209E-2
MEAN_MOTION_DOT = .3021E-3
MEAN_MOTION_DDOT = .667352E-6

CCSDS_OMM_VERS = 2.0
CREATION_DATE  = 
ORIGINATOR     = 

OBJECT_NAME    = SPAINSAT NG II
OBJECT_ID      = 2025-239A
CENTER_NAME    = EARTH
REF_FRAME      = TEME
TIME_SYSTEM    = UTC
MEAN_ELEMENT_THEORY = SGP/SGP4

EPOCH          = 2025-10-29T16:25:50.814624
MEAN_MOTION    = 1.13577027
ECCENTRICITY   = .81541196
INCLINATION    = 24.9713
RA_OF_ASC_NODE = 246.2153
ARG_OF_PERICENTER = 179.7432
MEAN_ANOMALY   = 181.7033

EPHEMERIS_TYPE = 0
CLASSIFICATION_TYPE = U
NORAD_CAT_ID   = 66144
ELEMENT_SET_NO = 999
REV_AT_EPOCH   = 8
BSTAR          = .46486231E-3
MEAN_MOTION_DOT = -.205E-5
MEAN_MOTION_DDOT = 0

CCSDS_OMM_VERS = 2.0
CREATION_DATE  = 
ORIGINATOR     = 

OBJECT_NAME    = HTV-X1
OBJECT_ID      = 2025-241A
CENTER_NAME    = EARTH
REF_FRAME      = TEME
TIME_SYSTEM    = UTC
MEAN_ELEMENT_THEORY = SGP/SGP4

EPOCH          = 2025-11-03T18:39:36.577152
MEAN_MOTION    = 15.49729876
ECCENTRICITY   = .00049997
INCLINATION    = 51.6338
RA_OF_ASC_NODE = 335.3649
ARG_OF_PERICENTER = 13.8862
MEAN_ANOMALY   = 346.2263

EPHEMERIS_TYPE = 0
CLASSIFICATION_TYPE = U
NORAD_CAT_ID   = 66174
ELEMENT_SET_NO = 999
REV_AT_EPOCH   = 133
BSTAR          = .19171699E-3
MEAN_MOTION_DOT = .104E-3
MEAN_MOTION_DDOT = 0

CCSDS_OMM_VERS = 2.0
CREATION_DATE  = 
ORIGINATOR     = 

OBJECT_NAME    = GAOFEN-14 02
OBJECT_ID      = 2025-242A
CENTER_NAME    = EARTH
REF_FRAME      = TEME
TIME_SYSTEM    = UTC
MEAN_ELEMENT_THEORY = SGP/SGP4

EPOCH          = 2025-10-28T02:32:28.748256
MEAN_MOTION    = 15.27335919
ECCENTRICITY   = .0010327
INCLINATION    = 97.4398
RA_OF_ASC_NODE = 13.2893
ARG_OF_PERICENTER = 261.9781
MEAN_ANOMALY   = 98.0286

EPHEMERIS_TYPE = 0
CLASSIFICATION_TYPE = U
NORAD_CAT_ID   = 66175
ELEMENT_SET_NO = 999
REV_AT_EPOCH   = 30
BSTAR          = .55401E-3
MEAN_MOTION_DOT = .14793E-3
MEAN_MOTION_DDOT = 0

